[{"OBJECT_NAME":"STARLINK-31460","OBJECT_ID":"2024-036L","EPOCH":"2026-03-09T23:11:26.123712","MEAN_MOTION":15.30213399,"ECCENTRICITY":0.00013278,"INCLINATION":53.16,"RA_OF_ASC_NODE":76.9822,"ARG_OF_PERICENTER":88.5121,"MEAN_ANOMALY":271.6032,"EPHEMERIS_TYPE":0,"CLASSIFICATION_TYPE":"U","NORAD_CAT_ID":59008,"ELEMENT_SET_NO":999,"REV_AT_EPOCH":11536,"BSTAR":-9.737316e-5,"MEAN_MOTION_DOT":-3.243e-5,"MEAN_MOTION_DDOT":0},{"OBJECT_NAME":"JIELONG-3 R\/B","OBJECT_ID":"2026-027H","EPOCH":"2026-03-09T22:52:28.951104","MEAN_MOTION":15.76303399,"ECCENTRICITY":0.02123753,"INCLINATION":97.5118,"RA_OF_ASC_NODE":200.0017,"ARG_OF_PERICENTER":243.897,"MEAN_ANOMALY":114.0305,"EPHEMERIS_TYPE":0,"CLASSIFICATION_TYPE":"U","NORAD_CAT_ID":67753,"ELEMENT_SET_NO":999,"REV_AT_EPOCH":402,"BSTAR":0.00072450109,"MEAN_MOTION_DOT":0.00557901,"MEAN_MOTION_DDOT":2.368277e-6}]
